STARLINK-31034          
1 58785U 24011W   26068.77356333  .00000920  00000+0  43193-4 0  9994
2 58785  53.1594 270.9177 0001206  74.4404 285.6729 15.30193618121748
NUSHSAT1                
1 63211U 25052B   26068.64700493  .00023034  00000+0  74857-3 0  9997
2 63211  97.4095 325.7239 0005501  84.7512 275.4357 15.31903202 54882
